[{"OBJECT_NAME":"TIANQI-14","OBJECT_ID":"2021-055E","EPOCH":"2026-03-09T21:13:53.334048","MEAN_MOTION":15.12385268,"ECCENTRICITY":0.00041067,"INCLINATION":35.0005,"RA_OF_ASC_NODE":333.4675,"ARG_OF_PERICENTER":169.8812,"MEAN_ANOMALY":190.1982,"EPHEMERIS_TYPE":0,"CLASSIFICATION_TYPE":"U","NORAD_CAT_ID":48864,"ELEMENT_SET_NO":999,"REV_AT_EPOCH":25867,"BSTAR":0.00046306259,"MEAN_MOTION_DOT":8.192e-5,"MEAN_MOTION_DDOT":0},{"OBJECT_NAME":"COSMOS 249 DEB","OBJECT_ID":"1968-091BY","EPOCH":"2026-03-09T15:02:10.681728","MEAN_MOTION":13.99350738,"ECCENTRICITY":0.050522,"INCLINATION":62.8493,"RA_OF_ASC_NODE":140.5745,"ARG_OF_PERICENTER":190.7995,"MEAN_ANOMALY":168.1879,"EPHEMERIS_TYPE":0,"CLASSIFICATION_TYPE":"U","NORAD_CAT_ID":4008,"ELEMENT_SET_NO":999,"REV_AT_EPOCH":82676,"BSTAR":0.00082652,"MEAN_MOTION_DOT":3.549e-5,"MEAN_MOTION_DDOT":0}]
